KUIPER-00071            
1 64818U 25151C   25358.09001969  .00003235  00000+0  45301-3 0  9996
2 64818  51.9014 277.3795 0007415 348.0010  12.0774 14.79947927 24075
KUIPER-00072            
1 64819U 25151D   25358.13082545  .00003439  00000+0  51658-3 0  9999
2 64819  51.8998 257.0524 0002688   1.3300 358.7668 14.76754106 24365
KUIPER-00073            
1 64820U 25151E   25358.05634462  .00005623  00000+0  76483-3 0  9993
2 64820  51.8999 277.5243 0013520   7.0647 353.0503 14.79958253 25254
KUIPER-00074            
1 64821U 25151F   25358.00231292 -.00005876  00000+0 -74075-3 0  9990
2 64821  51.9009 265.2826 0014117  23.4147 336.7456 14.79925725 24239
KUIPER-00075            
1 64822U 25151G   25358.06726481  .00036988  00000+0  91951-3 0  9994
2 64822  51.8731 229.1655 0003356  32.2030 327.9162 15.39939900 24741
KUIPER-00076            
1 64823U 25151H   25358.13464734 -.00008501  00000+0 -10866-2 0  9990
2 64823  51.9019 267.1890 0005813  24.4861 335.6376 14.79949959 24224
KUIPER-00077            
1 64824U 25151J   25358.12930059  .00005483  00000+0  74705-3 0  9995
2 64824  51.9003 272.2194 0006236 345.6074  14.4710 14.79968121 24154
KUIPER-00078            
1 64825U 25151K   25358.03063045 -.00010999  00000+0 -14149-2 0  9993
2 64825  51.9009 270.1492 0009080  42.4103 317.7559 14.79929608 24173
