<?xml version="1.0" encoding="UTF-8"?>
<ndm xmlns:xsi="http://www.w3.org/2001/XMLSchema-instance" xsi:noNamespaceSchemaLocation="https://sanaregistry.org/r/ndmxml_unqualified/ndmxml-2.0.0-master-2.0.xsd">
<omm id="CCSDS_OMM_VERS" version="2.0">
<header><CREATION_DATE/><ORIGINATOR/></header><body><segment><metadata><OBJECT_NAME>KUIPER-00071</OBJECT_NAME><OBJECT_ID>2025-151C</OBJECT_ID><CENTER_NAME>EARTH</CENTER_NAME><REF_FRAME>TEME</REF_FRAME><TIME_SYSTEM>UTC</TIME_SYSTEM><MEAN_ELEMENT_THEORY>SGP4</MEAN_ELEMENT_THEORY></metadata><data><meanElements><EPOCH>2025-12-24T02:09:37.701216</EPOCH><MEAN_MOTION>14.79947927</MEAN_MOTION><ECCENTRICITY>.0007415</ECCENTRICITY><INCLINATION>51.9014</INCLINATION><RA_OF_ASC_NODE>277.3795</RA_OF_ASC_NODE><ARG_OF_PERICENTER>348.0010</ARG_OF_PERICENTER><MEAN_ANOMALY>12.0774</MEAN_ANOMALY></meanElements><tleParameters><EPHEMERIS_TYPE>0</EPHEMERIS_TYPE><CLASSIFICATION_TYPE>U</CLASSIFICATION_TYPE><NORAD_CAT_ID>64818</NORAD_CAT_ID><ELEMENT_SET_NO>999</ELEMENT_SET_NO><REV_AT_EPOCH>2407</REV_AT_EPOCH><BSTAR>.45301E-3</BSTAR><MEAN_MOTION_DOT>.3235E-4</MEAN_MOTION_DOT><MEAN_MOTION_DDOT>0</MEAN_MOTION_DDOT></tleParameters></data></segment></body></omm>
<omm id="CCSDS_OMM_VERS" version="2.0">
<header><CREATION_DATE/><ORIGINATOR/></header><body><segment><metadata><OBJECT_NAME>KUIPER-00072</OBJECT_NAME><OBJECT_ID>2025-151D</OBJECT_ID><CENTER_NAME>EARTH</CENTER_NAME><REF_FRAME>TEME</REF_FRAME><TIME_SYSTEM>UTC</TIME_SYSTEM><MEAN_ELEMENT_THEORY>SGP4</MEAN_ELEMENT_THEORY></metadata><data><meanElements><EPOCH>2025-12-24T03:08:23.318880</EPOCH><MEAN_MOTION>14.76754106</MEAN_MOTION><ECCENTRICITY>.0002688</ECCENTRICITY><INCLINATION>51.8998</INCLINATION><RA_OF_ASC_NODE>257.0524</RA_OF_ASC_NODE><ARG_OF_PERICENTER>1.3300</ARG_OF_PERICENTER><MEAN_ANOMALY>358.7668</MEAN_ANOMALY></meanElements><tleParameters><EPHEMERIS_TYPE>0</EPHEMERIS_TYPE><CLASSIFICATION_TYPE>U</CLASSIFICATION_TYPE><NORAD_CAT_ID>64819</NORAD_CAT_ID><ELEMENT_SET_NO>999</ELEMENT_SET_NO><REV_AT_EPOCH>2436</REV_AT_EPOCH><BSTAR>.51658E-3</BSTAR><MEAN_MOTION_DOT>.3439E-4</MEAN_MOTION_DOT><MEAN_MOTION_DDOT>0</MEAN_MOTION_DDOT></tleParameters></data></segment></body></omm>
<omm id="CCSDS_OMM_VERS" version="2.0">
<header><CREATION_DATE/><ORIGINATOR/></header><body><segment><metadata><OBJECT_NAME>KUIPER-00073</OBJECT_NAME><OBJECT_ID>2025-151E</OBJECT_ID><CENTER_NAME>EARTH</CENTER_NAME><REF_FRAME>TEME</REF_FRAME><TIME_SYSTEM>UTC</TIME_SYSTEM><MEAN_ELEMENT_THEORY>SGP4</MEAN_ELEMENT_THEORY></metadata><data><meanElements><EPOCH>2025-12-24T01:21:08.175168</EPOCH><MEAN_MOTION>14.79958253</MEAN_MOTION><ECCENTRICITY>.001352</ECCENTRICITY><INCLINATION>51.8999</INCLINATION><RA_OF_ASC_NODE>277.5243</RA_OF_ASC_NODE><ARG_OF_PERICENTER>7.0647</ARG_OF_PERICENTER><MEAN_ANOMALY>353.0503</MEAN_ANOMALY></meanElements><tleParameters><EPHEMERIS_TYPE>0</EPHEMERIS_TYPE><CLASSIFICATION_TYPE>U</CLASSIFICATION_TYPE><NORAD_CAT_ID>64820</NORAD_CAT_ID><ELEMENT_SET_NO>999</ELEMENT_SET_NO><REV_AT_EPOCH>2525</REV_AT_EPOCH><BSTAR>.76483E-3</BSTAR><MEAN_MOTION_DOT>.5623E-4</MEAN_MOTION_DOT><MEAN_MOTION_DDOT>0</MEAN_MOTION_DDOT></tleParameters></data></segment></body></omm>
<omm id="CCSDS_OMM_VERS" version="2.0">
<header><CREATION_DATE/><ORIGINATOR/></header><body><segment><metadata><OBJECT_NAME>KUIPER-00074</OBJECT_NAME><OBJECT_ID>2025-151F</OBJECT_ID><CENTER_NAME>EARTH</CENTER_NAME><REF_FRAME>TEME</REF_FRAME><TIME_SYSTEM>UTC</TIME_SYSTEM><MEAN_ELEMENT_THEORY>SGP4</MEAN_ELEMENT_THEORY></metadata><data><meanElements><EPOCH>2025-12-24T00:03:19.836288</EPOCH><MEAN_MOTION>14.79925725</MEAN_MOTION><ECCENTRICITY>.0014117</ECCENTRICITY><INCLINATION>51.9009</INCLINATION><RA_OF_ASC_NODE>265.2826</RA_OF_ASC_NODE><ARG_OF_PERICENTER>23.4147</ARG_OF_PERICENTER><MEAN_ANOMALY>336.7456</MEAN_ANOMALY></meanElements><tleParameters><EPHEMERIS_TYPE>0</EPHEMERIS_TYPE><CLASSIFICATION_TYPE>U</CLASSIFICATION_TYPE><NORAD_CAT_ID>64821</NORAD_CAT_ID><ELEMENT_SET_NO>999</ELEMENT_SET_NO><REV_AT_EPOCH>2423</REV_AT_EPOCH><BSTAR>-.74075E-3</BSTAR><MEAN_MOTION_DOT>-.5876E-4</MEAN_MOTION_DOT><MEAN_MOTION_DDOT>0</MEAN_MOTION_DDOT></tleParameters></data></segment></body></omm>
<omm id="CCSDS_OMM_VERS" version="2.0">
<header><CREATION_DATE/><ORIGINATOR/></header><body><segment><metadata><OBJECT_NAME>KUIPER-00075</OBJECT_NAME><OBJECT_ID>2025-151G</OBJECT_ID><CENTER_NAME>EARTH</CENTER_NAME><REF_FRAME>TEME</REF_FRAME><TIME_SYSTEM>UTC</TIME_SYSTEM><MEAN_ELEMENT_THEORY>SGP4</MEAN_ELEMENT_THEORY></metadata><data><meanElements><EPOCH>2025-12-24T01:36:51.679584</EPOCH><MEAN_MOTION>15.39939900</MEAN_MOTION><ECCENTRICITY>.0003356</ECCENTRICITY><INCLINATION>51.8731</INCLINATION><RA_OF_ASC_NODE>229.1655</RA_OF_ASC_NODE><ARG_OF_PERICENTER>32.2030</ARG_OF_PERICENTER><MEAN_ANOMALY>327.9162</MEAN_ANOMALY></meanElements><tleParameters><EPHEMERIS_TYPE>0</EPHEMERIS_TYPE><CLASSIFICATION_TYPE>U</CLASSIFICATION_TYPE><NORAD_CAT_ID>64822</NORAD_CAT_ID><ELEMENT_SET_NO>999</ELEMENT_SET_NO><REV_AT_EPOCH>2474</REV_AT_EPOCH><BSTAR>.91951E-3</BSTAR><MEAN_MOTION_DOT>.36988E-3</MEAN_MOTION_DOT><MEAN_MOTION_DDOT>0</MEAN_MOTION_DDOT></tleParameters></data></segment></body></omm>
<omm id="CCSDS_OMM_VERS" version="2.0">
<header><CREATION_DATE/><ORIGINATOR/></header><body><segment><metadata><OBJECT_NAME>KUIPER-00076</OBJECT_NAME><OBJECT_ID>2025-151H</OBJECT_ID><CENTER_NAME>EARTH</CENTER_NAME><REF_FRAME>TEME</REF_FRAME><TIME_SYSTEM>UTC</TIME_SYSTEM><MEAN_ELEMENT_THEORY>SGP4</MEAN_ELEMENT_THEORY></metadata><data><meanElements><EPOCH>2025-12-24T03:13:53.530176</EPOCH><MEAN_MOTION>14.79949959</MEAN_MOTION><ECCENTRICITY>.0005813</ECCENTRICITY><INCLINATION>51.9019</INCLINATION><RA_OF_ASC_NODE>267.1890</RA_OF_ASC_NODE><ARG_OF_PERICENTER>24.4861</ARG_OF_PERICENTER><MEAN_ANOMALY>335.6376</MEAN_ANOMALY></meanElements><tleParameters><EPHEMERIS_TYPE>0</EPHEMERIS_TYPE><CLASSIFICATION_TYPE>U</CLASSIFICATION_TYPE><NORAD_CAT_ID>64823</NORAD_CAT_ID><ELEMENT_SET_NO>999</ELEMENT_SET_NO><REV_AT_EPOCH>2422</REV_AT_EPOCH><BSTAR>-.10866E-2</BSTAR><MEAN_MOTION_DOT>-.8501E-4</MEAN_MOTION_DOT><MEAN_MOTION_DDOT>0</MEAN_MOTION_DDOT></tleParameters></data></segment></body></omm>
<omm id="CCSDS_OMM_VERS" version="2.0">
<header><CREATION_DATE/><ORIGINATOR/></header><body><segment><metadata><OBJECT_NAME>KUIPER-00077</OBJECT_NAME><OBJECT_ID>2025-151J</OBJECT_ID><CENTER_NAME>EARTH</CENTER_NAME><REF_FRAME>TEME</REF_FRAME><TIME_SYSTEM>UTC</TIME_SYSTEM><MEAN_ELEMENT_THEORY>SGP4</MEAN_ELEMENT_THEORY></metadata><data><meanElements><EPOCH>2025-12-24T03:06:11.570976</EPOCH><MEAN_MOTION>14.79968121</MEAN_MOTION><ECCENTRICITY>.0006236</ECCENTRICITY><INCLINATION>51.9003</INCLINATION><RA_OF_ASC_NODE>272.2194</RA_OF_ASC_NODE><ARG_OF_PERICENTER>345.6074</ARG_OF_PERICENTER><MEAN_ANOMALY>14.4710</MEAN_ANOMALY></meanElements><tleParameters><EPHEMERIS_TYPE>0</EPHEMERIS_TYPE><CLASSIFICATION_TYPE>U</CLASSIFICATION_TYPE><NORAD_CAT_ID>64824</NORAD_CAT_ID><ELEMENT_SET_NO>999</ELEMENT_SET_NO><REV_AT_EPOCH>2415</REV_AT_EPOCH><BSTAR>.74705E-3</BSTAR><MEAN_MOTION_DOT>.5483E-4</MEAN_MOTION_DOT><MEAN_MOTION_DDOT>0</MEAN_MOTION_DDOT></tleParameters></data></segment></body></omm>
<omm id="CCSDS_OMM_VERS" version="2.0">
<header><CREATION_DATE/><ORIGINATOR/></header><body><segment><metadata><OBJECT_NAME>KUIPER-00078</OBJECT_NAME><OBJECT_ID>2025-151K</OBJECT_ID><CENTER_NAME>EARTH</CENTER_NAME><REF_FRAME>TEME</REF_FRAME><TIME_SYSTEM>UTC</TIME_SYSTEM><MEAN_ELEMENT_THEORY>SGP4</MEAN_ELEMENT_THEORY></metadata><data><meanElements><EPOCH>2025-12-24T00:44:06.470880</EPOCH><MEAN_MOTION>14.79929608</MEAN_MOTION><ECCENTRICITY>.000908</ECCENTRICITY><INCLINATION>51.9009</INCLINATION><RA_OF_ASC_NODE>270.1492</RA_OF_ASC_NODE><ARG_OF_PERICENTER>42.4103</ARG_OF_PERICENTER><MEAN_ANOMALY>317.7559</MEAN_ANOMALY></meanElements><tleParameters><EPHEMERIS_TYPE>0</EPHEMERIS_TYPE><CLASSIFICATION_TYPE>U</CLASSIFICATION_TYPE><NORAD_CAT_ID>64825</NORAD_CAT_ID><ELEMENT_SET_NO>999</ELEMENT_SET_NO><REV_AT_EPOCH>2417</REV_AT_EPOCH><BSTAR>-.14149E-2</BSTAR><MEAN_MOTION_DOT>-.10999E-3</MEAN_MOTION_DOT><MEAN_MOTION_DDOT>0</MEAN_MOTION_DDOT></tleParameters></data></segment></body></omm>

</ndm>
